INTELSAT 10 (IS-10)     
1 26766U 01019A   25340.47907061 -.00000237  00000+0  00000+0 0  9997
2 26766   8.6144  61.2183 0007851 220.2225 132.1998  0.99078798 43668
INTELSAT 902 (IS-902)   
1 26900U 01039A   25335.70832537 -.00000263  00000+0  00000+0 0  9993
2 26900   5.6187  74.2002 0004309 175.1190  26.3816  1.00270327 88713
INTELSAT 904 (IS-904)   
1 27380U 02007A   25341.13384468 -.00000224  00000+0  00000+0 0  9998
2 27380   6.4406  71.4955 0001756 212.7991 168.5269  1.00268623 49843
DIRECTV 5 (TEMPO 1)     
1 27426U 02023A   25341.30166102 -.00000054  00000+0  00000+0 0  9990
2 27426   4.3879  77.7152 0003923 196.6889 160.4004  1.00271641 86198
INTELSAT 905 (IS-905)   
1 27438U 02027A   25337.40328877  .00000109  00000+0  00000+0 0  9992
2 27438   6.2606  72.1621 0003129 189.1417 179.1858  1.00273288 49408
GALAXY 3C (G-3C)        
1 27445U 02030A   25341.30775003 -.00000149  00000+0  00000+0 0  9990
2 27445   3.2501  80.5608 0001191 101.8477 269.8537  1.00270960 44577
INTELSAT 906 (IS-906)   
1 27513U 02041A   25341.22415979  .00000015  00000+0  00000+0 0  9993
2 27513   5.3148  75.2970 0006055 188.5449 317.2449  1.00270533 85101
GALAXY 13 (HORIZONS-1)  
1 27954U 03044A   25341.28631420  .00000137  00000+0  00000+0 0  9998
2 27954   0.9214  86.5406 0001968 155.2736 147.5884  1.00270319 44645
INTELSAT 10-02          
1 28358U 04022A   25341.28257348 -.00000007  00000+0  00000+0 0  9994
2 28358   0.0344  71.5199 0001119 213.0136 252.5180  1.00270043 78633
XM-3 (RHYTHM)           
1 28626U 05008A   25341.31048032 -.00000266  00000+0  00000+0 0  9996
2 28626   0.1603  81.0699 0001231 261.0026 346.1224  0.98954379 40698
DIRECTV 8               
1 28659U 05019A   25341.34235053  .00000006  00000+0  00000+0 0  9999
2 28659   0.0167 348.7889 0003248 271.3378 180.4380  1.00271332 75141
GALAXY 28 (G-28)        
1 28702U 05022A   25341.31334463 -.00000184  00000+0  00000+0 0  9992
2 28702   2.8047  81.3453 0002654 176.0467 203.0653  1.00271565 50050
GALAXY 16 (G-16)        
1 29236U 06023A   25341.29829782 -.00000122  00000+0  00000+0 0  9999
2 29236   0.0014 246.4408 0003008  17.2474 181.0155  1.00271165 71049
DIRECTV 9S              
1 29494U 06043A   25341.30514208 -.00000109  00000+0  00000+0 0  9998
2 29494   1.9257  83.2650 0003243 175.0328 186.6729  1.00270561 49460
GALAXY 17 (G-17)        
1 31307U 07016B   25341.31253674 -.00000203  00000+0  00000+0 0  9998
2 31307   2.4859  82.3457 0006037 161.0096 220.4883  1.00270009 67887
DIRECTV 10              
1 31862U 07032A   25341.30447192 -.00000098  00000+0  00000+0 0  9993
2 31862   0.0034 221.9555 0000313  33.2255 187.9700  1.00269963 43662
INTELSAT 11 (IS-11)     
1 32253U 07044B   25341.30166067  .00000056  00000+0  00000+0 0  9993
2 32253   3.0656  81.0352 0009232 163.5456 189.9763  0.99047299 66545
HORIZONS-2              
1 32388U 07063B   25341.33063538 -.00000250  00000+0  00000+0 0  9992
2 32388   2.1070  83.0174 0005079 184.9695 213.6188  1.00270967 65891
DIRECTV 11              
1 32729U 08013A   25340.47841003 -.00000119  00000+0  00000+0 0  9996
2 32729   0.0204 155.7645 0000518  58.6641 294.1227  1.00274292 43661
GALAXY 18 (G-18)        
1 32951U 08024A   25341.33836233  .00000030  00000+0  00000+0 0  9991
2 32951   0.0210  57.0704 0003321 202.8422 175.2489  1.00270181 43921
INTELSAT 25 (IS-25)     
1 33153U 08034A   25341.27650677 -.00000220  00000+0  00000+0 0  9998
2 33153   2.2131  82.7068 0005445 182.0154 239.6308  1.00270614 63771
GALAXY 19 (G-19)        
1 33376U 08045A   25341.29963782 -.00000135  00000+0  00000+0 0  9998
2 33376   0.0269  70.3583 0003459 198.0545 178.7848  1.00270676 62987
FM-5                    
1 35493U 09034A   25341.31376498 -.00000196  00000+0  00000+0 0  9991
2 35493   0.0190 288.6137 0000569 258.2784 276.2560  1.00270941 44726
INTELSAT 14 (IS-14)     
1 36097U 09064A   25341.27382009 -.00000269  00000+0  00000+0 0  9996
2 36097   0.0091 351.7597 0002726 268.2545 229.8718  1.00270968 58680
INTELSAT 15 (IS-15)     
1 36106U 09067A   25341.08559594 -.00000180  00000+0  00000+0 0  9996
2 36106   0.0165 344.2169 0002499 276.1108 291.7578  1.00270328 39305
DIRECTV 12              
1 36131U 09075A   25340.62037093 -.00000097  00000+0  00000+0 0  9994
2 36131   0.0503 138.3397 0000464 206.2430 211.6829  1.00272184 44629
INTELSAT 16 (IS-16)     
1 36397U 10006A   25341.27377343 -.00000240  00000+0  00000+0 0  9991
2 36397   0.0113 318.2366 0002358 301.1561 199.2694  1.00270899 57737
XM-5                    
1 37185U 10053A   25340.90324819 -.00000017  00000+0  00000+0 0  9990
2 37185   0.0621 273.0037 0001708 248.6895 124.2219  1.00268224 55551
INTELSAT 17 (IS-17)     
1 37238U 10065B   25341.22441979  .00000003  00000+0  00000+0 0  9999
2 37238   0.0075 313.9965 0002410 302.5834 326.4653  1.00271704 51327
INTELSAT 28 (IS-28)     
1 37392U 11016A   25341.27650677 -.00000221  00000+0  00000+0 0  9992
2 37392   1.3100  85.1225 0004161 177.7306 241.2847  1.00270466 51366
INTELSAT 18 (IS-18)     
1 37834U 11056A   25341.17579949  .00000058  00000+0  00000+0 0  9995
2 37834   0.0167 328.3083 0002138 295.1268  56.0568  1.00271911 51889
INTELSAT 22 (IS-22)     
1 38098U 12011A   25341.14419655 -.00000054  00000+0  00000+0 0  9991
2 38098   0.0103  33.7815 0001749 232.7098 293.6994  1.00271150  5265
INTELSAT 19 (IS-19)     
1 38356U 12030A   25341.24435324 -.00000052  00000+0  00000+0 0  9999
2 38356   0.0106  13.2827 0003530 250.2868  66.6704  1.00270369 48525
INTELSAT 20 (IS-20)     
1 38740U 12043A   25341.08586225 -.00000019  00000+0  00000+0 0  9992
2 38740   0.0012  67.5911 0002976 114.9060 353.0414  1.00270865 48822
INTELSAT 21 (IS-21)     
1 38749U 12045A   25341.27130674 -.00000280  00000+0  00000+0 0  9997
2 38749   0.0164 353.1669 0002247 259.0702 223.7362  1.00271038 48602
INTELSAT 23 (IS-23)     
1 38867U 12057A   25340.48751009 -.00000278  00000+0  00000+0 0  9991
2 38867   0.0474  98.6565 0001687 128.5865 330.7637  1.00267666 48022
FM-6                    
1 39360U 13058A   25341.06262270 -.00000011  00000+0  00000+0 0  9999
2 39360   0.0099  99.8238 0003119  74.0345 168.6312  1.00268695 44144
INTELSAT 30 (IS-30)     
1 40271U 14062A   25341.30790144 -.00000146  00000+0  00000+0 0  9990
2 40271   0.0141  18.2211 0001156  60.6068  13.2937  1.00269737  4864
DIRECTV 14              
1 40333U 14078B   25341.30581874 -.00000121  00000+0  00000+0 0  9997
2 40333   0.0179 340.3024 0000312 252.8830 214.0195  1.00270193 40124
DIRECTV 15              
1 40663U 15026A   25340.90567487 -.00000097  00000+0  00000+0 0  9998
2 40663   0.0385  80.1364 0000456 150.8974  68.0869  1.00270123 38530
SKY MEXICO-1            
1 40664U 15026B   25341.26714671 -.00000230  00000+0  00000+0 0  9997
2 40664   0.0165  41.3375 0002792 229.6948 182.6689  1.00271100 38538
INTELSAT 34 (IS-34)     
1 40874U 15039A   25341.19543078 -.00000281  00000+0  00000+0 0  9993
2 40874   0.0110 311.1439 0000361 225.1302 274.8039  1.00268225 37700
INTELSAT 31 (IS-31)     
1 41581U 16035A   25341.19261292 -.00000147  00000+0  00000+0 0  9992
2 41581   0.0213 265.9898 0002293 305.3118 199.2065  1.00278147 34752
INTELSAT 36 (IS-36)     
1 41747U 16053A   25341.08586225 -.00000019  00000+0  00000+0 0  9998
2 41747   0.0116 351.1153 0001532 320.4670 223.9453  1.00271325 34023
INTELSAT 32E (IS-32E)   
1 41945U 17007B   25341.27425343 -.00000264  00000+0  00000+0 0  9994
2 41945   0.0298  69.1436 0000319 263.6407 159.0700  1.00271091 32305
INTELSAT 35E (IS-35E)   
1 42818U 17041A   25341.20457299 -.00000233  00000+0  00000+0 0  9996
2 42818   0.0176   6.0458 0002403 254.5081 214.8373  1.00269935 30899
INTELSAT 37E (IS-37E)   
1 42950U 17059A   25341.27919346 -.00000136  00000+0  00000+0 0  9997
2 42950   0.0171 348.7934 0003462 263.8715 266.1525  1.00270717 30146
AZERSPACE 2 (IS-38)     
1 43632U 18074A   25341.22386308  .00000141  00000+0  00000+0 0  9999
2 43632   0.0163 325.3926 0001813 301.6911 294.8814  1.00277128 26523
HORIZONS-3E             
1 43633U 18074B   25341.24495991 -.00000026  00000+0  00000+0 0  9994
2 43633   0.0421 183.6545 0001267 104.0548  45.7689  1.00268460 26417
AT&T T-16               
1 44333U 19034A   25341.26281334 -.00000110  00000+0  00000+0 0  9999
2 44333   0.0258  61.8789 0000447 105.7862 262.3772  1.00268339 23700
INTELSAT 39 (IS-39)     
1 44476U 19049B   25340.93834839  .00000040  00000+0  00000+0 0  9991
2 44476   0.0164 319.6906 0000879 183.4518 332.5825  1.00267191 23208
GALAXY 30 (G-30)        
1 46114U 20056C   25341.25795999  .00000042  00000+0  00000+0 0  9993
2 46114   0.0168 334.3319 0002468 280.5472 149.2672  1.00270615 19369
GALAXY 33 (G-33)        
1 54026U 22128A   25341.29357465  .00000084  00000+0  00000+0 0  9998
2 54026   0.0220  46.5976 0002229 205.5190 156.8866  1.00270460 11818
GALAXY 34 (G-34)        
1 54027U 22128B   25341.25717998  .00000000  00000+0  00000+0 0  9994
2 54027   0.0204 351.7204 0001334 257.4803 150.7295  1.00270030 11989
GALAXY 31 (G-31)        
1 54243U 22153A   25341.25882666  .00000018  00000+0  00000+0 0  9996
2 54243   0.0190  75.8290 0001967 192.1195 140.5155  1.00271085  5204
GALAXY 32 (G-32)        
1 54244U 22153B   25341.26472002 -.00000170  00000+0  00000+0 0  9997
2 54244   0.0108 324.2111 0002675 338.9288 137.4527  1.00273035 11221
GALAXY 35 (G-35)        
1 54741U 22170A   25341.26428669 -.00000158  00000+0  00000+0 0  9994
2 54741   0.0095  46.8987 0002714 215.6872 175.7605  1.00271089 10969
GALAXY 36 (G-36)        
1 54742U 22170B   25341.26515337  .00000000  00000+0  00000+0 0  9999
2 54742   0.0106 348.9133 0000627 286.9381 166.8867  1.00269277 10843
GALAXY 37 (G-37)        
1 57493U 23112A   25341.25761332  .00000053  00000+0  00000+0 0  9997
2 57493   0.0072 338.7350 0002404 282.2500 141.0424  1.00270729  8616
